OBJECT_NAME,OBJECT_ID,EPOCH,MEAN_MOTION,ECCENTRICITY,INCLINATION,RA_OF_ASC_NODE,ARG_OF_PERICENTER,MEAN_ANOMALY,EPHEMERIS_TYPE,CLASSIFICATION_TYPE,NORAD_CAT_ID,ELEMENT_SET_NO,REV_AT_EPOCH,BSTAR,MEAN_MOTION_DOT,MEAN_MOTION_DDOT
STARLINK-30977,2023-183Y,2026-07-16T14:04:13.307232,15.27575982,.00009795,43.0037,33.9952,276.6312,83.4428,0,U,58459,999,14644,.8183545E-5,-.37E-6,0
GNOMES-4,2023-185A,2026-07-16T14:52:10.034976,15.00966388,.00077693,97.4830,253.7004,220.8732,139.1911,0,U,58462,999,14370,.13103803E-3,.1614E-4,0
KORSAT-7,2023-185B,2026-07-16T15:42:42.189408,15.00973074,.00227694,97.6357,261.4471,224.7755,135.1633,0,U,58463,999,14370,.10339501E-3,.1265E-4,0
KOYOH,2023-185C,2026-07-16T14:56:20.527584,15.18488964,.00067144,97.5304,269.7287,190.5263,169.5832,0,U,58464,999,14459,.14964537E-3,.3018E-4,0
UHETSAT,2023-185E,2026-07-16T15:49:02.851392,15.31554619,.00124267,97.3464,264.8660,198.3884,161.6910,0,U,58466,999,14580,.12607077E-3,.3771E-4,0
SPIRIT,2023-185G,2026-07-16T15:28:48.026784,16.00252128,.00059425,97.3210,285.0614,215.3248,144.7638,0,U,58468,999,14726,.64618388E-3,.332051E-2,.48523597E-4
ION SCV-015,2023-185H,2026-07-16T15:12:18.197280,15.33375732,.00086719,97.5768,287.0868,4.7454,355.3869,0,U,58469,999,14559,.11509164E-3,.3632E-4,0
STARLINK-30947,2023-186A,2026-07-15T23:18:57.372768,15.27577922,.00016848,43.0022,62.7288,255.5230,104.5435,0,U,58473,999,14547,.69066536E-4,.1639E-4,0
STARLINK-30941,2023-186C,2026-07-16T15:04:13.274688,15.27584320,.00008147,43.0002,59.0550,271.7184,88.3575,0,U,58475,999,14557,.45018019E-4,.977E-5,0
STARLINK-30980,2023-186D,2026-07-16T15:09:46.316448,15.27597246,.00007035,42.9979,59.0837,298.2748,61.8033,0,U,58476,999,14557,.30045737E-3,.8019E-4,0
STARLINK-30965,2023-186E,2026-07-16T06:37:10.017696,15.27571093,.00011251,43.0005,46.0104,262.7609,97.3115,0,U,58477,999,14569,.56254688E-4,.1286E-4,0
STARLINK-30990,2023-186F,2026-07-16T14:54:58.314528,15.27579175,.00014732,43.0032,59.0063,266.9768,93.0915,0,U,58478,999,14561,.65546062E-4,.1542E-4,0
STARLINK-30984,2023-186H,2026-07-16T15:39:52.985376,15.27576793,.00012011,43.0036,54.9682,273.2318,86.8397,0,U,58480,999,14562,.29305609E-4,.544E-5,0
STARLINK-30956,2023-186J,2026-07-15T23:41:53.388672,15.27567540,.00016005,43.0026,36.7224,288.6067,71.4611,0,U,58481,999,14577,.1147229E-3,.2895E-4,0
STARLINK-30997,2023-186K,2026-07-16T14:53:49.932384,15.27592640,.00004601,42.9962,55.5582,276.9666,83.1133,0,U,58482,999,14561,.48739287E-3,.13179E-3,0
STARLINK-30994,2023-186L,2026-07-16T03:35:37.331232,15.35987709,.00090875,42.9971,251.8100,29.5048,330.6319,0,U,58483,999,14748,.97577201E-3,.34857E-3,0
STARLINK-30991,2023-186M,2026-07-16T15:38:01.689216,15.27579544,.00011153,43.0053,54.9562,273.2133,86.8591,0,U,58484,999,14560,.23772129E-4,.392E-5,0
STARLINK-30979,2023-186N,2026-07-16T15:06:47.993760,15.27580118,.00005635,43.0007,55.6580,282.3261,77.7528,0,U,58485,999,14560,.47875012E-4,.1056E-4,0
STARLINK-31005,2023-186P,2026-07-16T14:57:31.704768,15.27582685,.00011438,43.0006,55.6097,266.9316,93.1404,0,U,58486,999,14560,.40595312E-4,.855E-5,0
STARLINK-30987,2023-186Q,2026-07-16T15:03:05.512032,15.27577378,.00010241,43.0016,55.6375,273.4534,86.6200,0,U,58487,999,14560,-.17103304E-4,-.733E-5,0
STARLINK-31000,2023-186R,2026-07-16T14:46:24.602592,15.27595761,.00015097,43.0026,55.5489,268.8664,91.2014,0,U,58488,999,14560,.10147556E-3,.2532E-4,0
STARLINK-30993,2023-186S,2026-07-16T14:51:59.100192,15.27574456,.00016502,42.9990,55.5781,253.1026,106.9644,0,U,58489,999,14560,-.6695698E-4,-.2104E-4,0
STARLINK-30978,2023-186T,2026-07-16T00:29:45.714336,15.27576365,.0001376,43.0036,58.8253,262.9663,97.1032,0,U,58490,999,14551,.9496292E-5,-.1E-7,0
STARLINK-30953,2023-186U,2026-07-16T12:33:55.504512,15.27580039,.00014792,43.0011,259.9161,268.1327,91.9355,0,U,58491,999,14759,.36305138E-4,.737E-5,0
STARLINK-30986,2023-186V,2026-07-16T00:24:13.262688,15.27582462,.0000944,43.0026,58.7994,285.4788,74.5959,0,U,58492,999,14551,.18882611E-4,.258E-5,0
STARLINK-30985,2023-186W,2026-07-16T08:03:53.511264,15.27589249,.00012057,43.0075,56.8928,246.2041,113.8684,0,U,58493,999,14556,.75555395E-4,.1818E-4,0
STARLINK-30981,2023-186X,2026-07-15T00:35:13.308576,15.27580583,.00014628,43.0051,64.2468,263.1412,96.9273,0,U,58494,999,14536,.17465099E-4,.218E-5,0
STARLINK-31002,2023-186Y,2026-07-16T15:12:19.819008,15.27579551,.00011539,43.0011,55.6828,276.4063,83.6657,0,U,58495,999,14577,.30195142E-4,.569E-5,0
XINGCHI-1 02A,2023-187A,2026-07-16T14:19:55.803360,14.84347006,.00125593,97.9259,280.2642,54.1469,306.0910,0,U,58496,999,14148,.87779602E-4,.683E-5,0
MISRSAT-2,2023-187B,2026-07-16T14:32:02.130144,14.83308656,.00120292,97.9266,279.3078,56.1481,304.0875,0,U,58497,999,14140,.76800947E-4,.576E-5,0
