STARLINK-30977          
1 58459U 23183Y   26197.58626513 -.00000037  00000+0  81835-5 0  9999
2 58459  43.0037  33.9952 0000979 276.6312  83.4428 15.27575982146442
GNOMES-4                
1 58462U 23185A   26197.61956059  .00001614  00000+0  13104-3 0  9993
2 58462  97.4830 253.7004 0007769 220.8732 139.1911 15.00966388143708
KORSAT-7                
1 58463U 23185B   26197.65465497  .00001265  00000+0  10340-3 0  9990
2 58463  97.6357 261.4471 0022769 224.7755 135.1633 15.00973074143701
KOYOH                   
1 58464U 23185C   26197.62245981  .00003018  00000+0  14965-3 0  9997
2 58464  97.5304 269.7287 0006714 190.5263 169.5832 15.18488964144593
UHETSAT                 
1 58466U 23185E   26197.65906078  .00003771  00000+0  12607-3 0  9990
2 58466  97.3464 264.8660 0012426 198.3884 161.6910 15.31554619145804
SPIRIT                  
1 58468U 23185G   26197.64500031  .00332051  48524-4  64618-3 0  9993
2 58468  97.3210 285.0614 0005942 215.3248 144.7638 16.00252128147266
ION SCV-015             
1 58469U 23185H   26197.63354395  .00003632  00000+0  11509-3 0  9996
2 58469  97.5768 287.0868 0008671   4.7454 355.3869 15.33375732145593
STARLINK-30947          
1 58473U 23186A   26196.97149737  .00001639  00000+0  69067-4 0  9998
2 58473  43.0022  62.7288 0001684 255.5230 104.5435 15.27577922145474
STARLINK-30941          
1 58475U 23186C   26197.62793142  .00000977  00000+0  45018-4 0  9992
2 58475  43.0002  59.0550 0000814 271.7184  88.3575 15.27584320145572
STARLINK-30980          
1 58476U 23186D   26197.63178607  .00008019  00000+0  30046-3 0  9996
2 58476  42.9979  59.0837 0000703 298.2748  61.8033 15.27597246145575
STARLINK-30965          
1 58477U 23186E   26197.27581039  .00001286  00000+0  56255-4 0  9994
2 58477  43.0005  46.0104 0001125 262.7609  97.3115 15.27571093145692
STARLINK-30990          
1 58478U 23186F   26197.62150827  .00001542  00000+0  65546-4 0  9999
2 58478  43.0032  59.0063 0001473 266.9768  93.0915 15.27579175145611
STARLINK-30984          
1 58480U 23186H   26197.65269659  .00000544  00000+0  29306-4 0  9994
2 58480  43.0036  54.9682 0001201 273.2318  86.8397 15.27576793145628
STARLINK-30956          
1 58481U 23186J   26196.98742348  .00002895  00000+0  11472-3 0  9996
2 58481  43.0026  36.7224 0001600 288.6067  71.4611 15.27567540145777
STARLINK-30997          
1 58482U 23186K   26197.62071681  .00013179  00000+0  48739-3 0  9997
2 58482  42.9962  55.5582 0000460 276.9666  83.1133 15.27592640145610
STARLINK-30994          
1 58483U 23186L   26197.14973763  .00034857  00000+0  97577-3 0  9997
2 58483  42.9971 251.8100 0009087  29.5048 330.6319 15.35987709147484
STARLINK-30991          
1 58484U 23186M   26197.65140844  .00000392  00000+0  23772-4 0  9994
2 58484  43.0053  54.9562 0001115 273.2133  86.8591 15.27579544145608
STARLINK-30979          
1 58485U 23186N   26197.62972215  .00001056  00000+0  47875-4 0  9995
2 58485  43.0007  55.6580 0000563 282.3261  77.7528 15.27580118145603
STARLINK-31005          
1 58486U 23186P   26197.62328362  .00000855  00000+0  40595-4 0  9992
2 58486  43.0006  55.6097 0001143 266.9316  93.1404 15.27582685145606
STARLINK-30987          
1 58487U 23186Q   26197.62714713 -.00000733  00000+0 -17103-4 0  9998
2 58487  43.0016  55.6375 0001024 273.4534  86.6200 15.27577378145604
STARLINK-31000          
1 58488U 23186R   26197.61556253  .00002532  00000+0  10148-3 0  9999
2 58488  43.0026  55.5489 0001509 268.8664  91.2014 15.27595761145602
STARLINK-30993          
1 58489U 23186S   26197.61943403 -.00002104  00000+0 -66957-4 0  9994
2 58489  42.9990  55.5781 0001650 253.1026 106.9644 15.27574456145603
STARLINK-30978          
1 58490U 23186T   26197.02066799 -.00000001  00000+0  94963-5 0  9997
2 58490  43.0036  58.8253 0001376 262.9663  97.1032 15.27576365145511
STARLINK-30953          
1 58491U 23186U   26197.52355908  .00000737  00000+0  36305-4 0  9996
2 58491  43.0011 259.9161 0001479 268.1327  91.9355 15.27580039147599
STARLINK-30986          
1 58492U 23186V   26197.01682017  .00000258  00000+0  18883-4 0  9994
2 58492  43.0026  58.7994 0000944 285.4788  74.5959 15.27582462145513
STARLINK-30985          
1 58493U 23186W   26197.33603601  .00001818  00000+0  75555-4 0  9994
2 58493  43.0075  56.8928 0001205 246.2041 113.8684 15.27589249145569
STARLINK-30981          
1 58494U 23186X   26196.02445959  .00000218  00000+0  17465-4 0  9999
2 58494  43.0051  64.2468 0001462 263.1412  96.9273 15.27580583145366
STARLINK-31002          
1 58495U 23186Y   26197.63356272  .00000569  00000+0  30195-4 0  9991
2 58495  43.0011  55.6828 0001153 276.4063  83.6657 15.27579551145770
XINGCHI-1 02A           
1 58496U 23187A   26197.59717365  .00000683  00000+0  87780-4 0  9991
2 58496  97.9259 280.2642 0012559  54.1469 306.0910 14.84347006141484
MISRSAT-2               
1 58497U 23187B   26197.60558021  .00000576  00000+0  76801-4 0  9999
2 58497  97.9266 279.3078 0012029  56.1481 304.0875 14.83308656141400
